{"type": "FeatureCollection", "features": [ {"type": "Feature", "properties": {"norad_id": 64901, "name": "CO3D 4", "group": "resource", "lat": 80.72518056777952, "lon": 0.9745342083948028, "alt_km": 498.5250587855844, "timestamp": "2025-12-03T13:52:09.223359+00:00", "meta": {"OBJECT_NAME": "CO3D 4", "OBJECT_ID": "2025-156C", "EPOCH": "2025-12-01T18:50:45.474720", "MEAN_MOTION": 15.20204195, "ECCENTRICITY": 0.00012108, "INCLINATION": 97.4354, "RA_OF_ASC_NODE": 52.3098, "ARG_OF_PERICENTER": 238.3057, "MEAN_ANOMALY": 121.806, "EPHEMERIS_TYPE": 0, "CLASSIFICATION_TYPE": "U", "NORAD_CAT_ID": 64901, "ELEMENT_SET_NO": 999, "REV_AT_EPOCH": 1954, "BSTAR": -1.4420799e-05, "MEAN_MOTION_DOT": -3.8e-06, "MEAN_MOTION_DDOT": 0}, "tle": {"line1": "1 64901U 25156C   25335.78524855 -.00000380  00000+0 -14421-4 0  9999", "line2": "2 64901  97.4354  52.3098 0001210 238.3057 121.8060 15.20204195 19549"}}, "geometry": {"type": "Point", "coordinates": [0.9745342083948028, 80.72518056777952]}}, {"type": "Feature", "properties": {"norad_id": 64902, "name": "CO3D 2", "group": "resource", "lat": -81.92987558579479, "lon": 166.8956085987674, "alt_km": 513.1603020943594, "timestamp": "2025-12-03T13:52:09.223369+00:00", "meta": {"OBJECT_NAME": "CO3D 2", "OBJECT_ID": "2025-156D", "EPOCH": "2025-12-03T07:57:34.703424", "MEAN_MOTION": 15.20216291, "ECCENTRICITY": 0.0001002, "INCLINATION": 97.4353, "RA_OF_ASC_NODE": 53.733, "ARG_OF_PERICENTER": 114.5364, "MEAN_ANOMALY": 245.5976, "EPHEMERIS_TYPE": 0, "CLASSIFICATION_TYPE": "U", "NORAD_CAT_ID": 64902, "ELEMENT_SET_NO": 999, "REV_AT_EPOCH": 1977, "BSTAR": 0.00038994302, "MEAN_MOTION_DOT": 8.387e-05, "MEAN_MOTION_DDOT": 0}, "tle": {"line1": "1 64902U 25156D   25337.33165166  .00008387  00000+0  38994-3 0  9992", "line2": "2 64902  97.4353  53.7330 0001002 114.5364 245.5976 15.20216291 19773"}}, "geometry": {"type": "Point", "coordinates": [166.8956085987674, -81.92987558579479]}}, {"type": "Feature", "properties": {"norad_id": 64903, "name": "CO3D 1", "group": "resource", "lat": -81.56001253209001, "lon": 172.31771831372635, "alt_km": 513.1706766046063, "timestamp": "2025-12-03T13:52:09.223380+00:00", "meta": {"OBJECT_NAME": "CO3D 1", "OBJECT_ID": "2025-156E", "EPOCH": "2025-12-03T07:57:48.186144", "MEAN_MOTION": 15.20196725, "ECCENTRICITY": 9.991e-05, "INCLINATION": 97.4352, "RA_OF_ASC_NODE": 53.7325, "ARG_OF_PERICENTER": 112.6532, "MEAN_ANOMALY": 247.4808, "EPHEMERIS_TYPE": 0, "CLASSIFICATION_TYPE": "U", "NORAD_CAT_ID": 64903, "ELEMENT_SET_NO": 999, "REV_AT_EPOCH": 1977, "BSTAR": 0.0019573207, "MEAN_MOTION_DOT": 0.00042542, "MEAN_MOTION_DDOT": 0}, "tle": {"line1": "1 64903U 25156E   25337.33180771  .00042542  00000+0  19573-2 0  9994", "line2": "2 64903  97.4352  53.7325 0000999 112.6532 247.4808 15.20196725 19771"}}, "geometry": {"type": "Point", "coordinates": [172.31771831372635, -81.56001253209001]}}, {"type": "Feature", "properties": {"norad_id": 66514, "name": "SENTINEL-6B", "group": "resource", "lat": -56.94292301942376, "lon": 44.6509857064788, "alt_km": 1315.87589234988, "timestamp": "2025-12-03T13:52:09.223390+00:00", "meta": {"OBJECT_NAME": "SENTINEL-6B", "OBJECT_ID": "2025-264A", "EPOCH": "2025-12-03T06:59:27.402432", "MEAN_MOTION": 12.85877469, "ECCENTRICITY": 0.00115387, "INCLINATION": 66.0389, "RA_OF_ASC_NODE": 182.1549, "ARG_OF_PERICENTER": 268.6688, "MEAN_ANOMALY": 91.3008, "EPHEMERIS_TYPE": 0, "CLASSIFICATION_TYPE": "U", "NORAD_CAT_ID": 66514, "ELEMENT_SET_NO": 999, "REV_AT_EPOCH": 207, "BSTAR": 0.00029640172, "MEAN_MOTION_DOT": 1.1e-07, "MEAN_MOTION_DDOT": 0}, "tle": {"line1": "1 66514U 25264A   25337.29128938  .00000011  00000+0  29640-3 0  9998", "line2": "2 66514  66.0389 182.1549 0011538 268.6688  91.3008 12.85877469  2075"}}, "geometry": {"type": "Point", "coordinates": [44.6509857064788, -56.94292301942376]}}]}